*******************************************************************************
Ephemeris / WWW_USER Mon Jul 15 19:17:43 2024 Pasadena, USA      / Horizons    
*******************************************************************************
Target body name: (2018 YU2)                      {source: JPL#5}
Center body name: Earth (399)                     {source: DE441}
Center-site name: Gemini South Obs., Cerro Pachon
*******************************************************************************
Start time      : A.D. 2018-Dec-28 23:56:00.0000 UT      
Stop  time      : A.D. 2018-Dec-29 09:33:00.0000 UT      
Step-size       : 1 minutes
*******************************************************************************
Target pole/equ : undefined
Target radii    : undefined                                                    
Center geodetic : 289.2634, -30.2406227, 2.71233  {E-lon(deg),Lat(deg),Alt(km)}
Center cylindric: 289.2634,5517.21435,-3194.81213 {E-lon(deg),Dxy(km),Dz(km)}
Center pole/equ : ITRF93                          {East-longitude positive}
Center radii    : 6378.137, 6378.137, 6356.752 km {Equator_a, b, pole_c}       
Target primary  : Sun
Vis. interferer : MOON (R_eq= 1737.400) km        {source: DE441}
Rel. light bend : Sun                             {source: DE441}
Rel. lght bnd GM: 1.3271E+11 km^3/s^2                                          
Small-body perts: Yes                             {source: SB441-N16}
Atmos refraction: NO (AIRLESS)
RA format       : HMS
Time format     : CAL 
Calendar mode   : Mixed Julian/Gregorian
RTS-only print  : NO       
EOP file        : eop.240715.p241008                                           
EOP coverage    : DATA-BASED 1962-JAN-20 TO 2024-JUL-15. PREDICTS-> 2024-OCT-07
Units conversion: 1 au= 149597870.700 km, c= 299792.458 km/s, 1 day= 86400.0 s 
Table cut-offs 1: Elevation (-90.0deg=NO ),Airmass (>38.000=NO), Daylight (YES)
Table cut-offs 2: Solar elongation (  0.0,180.0=NO ),Local Hour Angle( 0.0=NO )
Table cut-offs 3: RA/DEC angular rate (     0.0=NO )                           
*******************************************************************************
Initial IAU76/J2000 heliocentric ecliptic osculating elements (au, days, deg.):
  EPOCH=  2458477.5 ! 2018-Dec-25.00 (TDB)         Residual RMS= .22887        
   EC= .1533598773405833   QR= .920984914841031    TP= 2458549.1486254167      
   OM= 279.4515303175068   W=  253.4059234937716   IN= 2.850769624588425       
  Equivalent ICRF heliocentric cartesian coordinates (au, au/d):
   X=-6.842297687009524E-02  Y= 9.429126817220428E-01  Z= 4.143187104036840E-01
  VX=-1.695115058702848E-02 VY=-2.997207899955317E-03 VZ=-2.239432528215744E-03
Asteroid physical parameters (km, seconds, rotational period in hours):        
   GM= n.a.                RAD= n.a.               ROTPER= n.a.                
   H= 26.5                 G= .150                 B-V= n.a.                   
                           ALBEDO= n.a.            STYP= n.a.                  
*******************************************************************************
 Date__(UT)__HR:MN     R.A._________(ICRF)_________DEC
******************************************************
$$SOE
 2018-Dec-29 01:59     07 49 36.416527 +23 21 50.66169
 2018-Dec-29 02:00     07 49 36.512173 +23 21 47.88655
 2018-Dec-29 02:01     07 49 36.607597 +23 21 45.11044
 2018-Dec-29 02:02     07 49 36.702800 +23 21 42.33337
 2018-Dec-29 02:03     07 49 36.797782 +23 21 39.55532
 2018-Dec-29 02:04     07 49 36.892544 +23 21 36.77629
 2018-Dec-29 02:05     07 49 36.987086 +23 21 33.99627
 2018-Dec-29 02:06     07 49 37.081409 +23 21 31.21526
 2018-Dec-29 02:07     07 49 37.175514 +23 21 28.43326
 2018-Dec-29 02:08     07 49 37.269400 +23 21 25.65025
 2018-Dec-29 02:09     07 49 37.363069 +23 21 22.86623
 2018-Dec-29 02:10     07 49 37.456521 +23 21 20.08121
 2018-Dec-29 02:11     07 49 37.549756 +23 21 17.29516
 2018-Dec-29 02:12     07 49 37.642776 +23 21 14.50809
 2018-Dec-29 02:13     07 49 37.735580 +23 21 11.71999
 2018-Dec-29 02:14     07 49 37.828170 +23 21 08.93085
 2018-Dec-29 02:15     07 49 37.920546 +23 21 06.14068
 2018-Dec-29 02:16     07 49 38.012708 +23 21 03.34946
 2018-Dec-29 02:17     07 49 38.104657 +23 21 00.55719
 2018-Dec-29 02:18     07 49 38.196394 +23 20 57.76387
 2018-Dec-29 02:19     07 49 38.287919 +23 20 54.96948
 2018-Dec-29 02:20     07 49 38.379233 +23 20 52.17403
 2018-Dec-29 02:21     07 49 38.470337 +23 20 49.37751
 2018-Dec-29 02:22     07 49 38.561231 +23 20 46.57991
 2018-Dec-29 02:23     07 49 38.651915 +23 20 43.78123
 2018-Dec-29 02:24     07 49 38.742391 +23 20 40.98147
 2018-Dec-29 02:25     07 49 38.832659 +23 20 38.18061
 2018-Dec-29 02:26     07 49 38.922719 +23 20 35.37865
 2018-Dec-29 02:27     07 49 39.012573 +23 20 32.57560
 2018-Dec-29 02:28     07 49 39.102221 +23 20 29.77143
 2018-Dec-29 02:29     07 49 39.191663 +23 20 26.96616
 2018-Dec-29 02:30     07 49 39.280900 +23 20 24.15977
 2018-Dec-29 02:31     07 49 39.369933 +23 20 21.35225
 2018-Dec-29 02:32     07 49 39.458763 +23 20 18.54361
 2018-Dec-29 02:33     07 49 39.547390 +23 20 15.73383
 2018-Dec-29 02:34     07 49 39.635814 +23 20 12.92292
 2018-Dec-29 02:35     07 49 39.724037 +23 20 10.11087
 2018-Dec-29 02:36     07 49 39.812059 +23 20 07.29767
 2018-Dec-29 02:37     07 49 39.899881 +23 20 04.48331
 2018-Dec-29 02:38     07 49 39.987503 +23 20 01.66780
 2018-Dec-29 02:39     07 49 40.074927 +23 19 58.85113
 2018-Dec-29 02:40     07 49 40.162152 +23 19 56.03329
 2018-Dec-29 02:41     07 49 40.249180 +23 19 53.21428
 2018-Dec-29 02:42     07 49 40.336012 +23 19 50.39410
 2018-Dec-29 02:43     07 49 40.422647 +23 19 47.57273
 2018-Dec-29 02:44     07 49 40.509087 +23 19 44.75017
 2018-Dec-29 02:45     07 49 40.595332 +23 19 41.92643
 2018-Dec-29 02:46     07 49 40.681383 +23 19 39.10149
 2018-Dec-29 02:47     07 49 40.767241 +23 19 36.27534
 2018-Dec-29 02:48     07 49 40.852906 +23 19 33.44800
 2018-Dec-29 02:49     07 49 40.938380 +23 19 30.61944
 2018-Dec-29 02:50     07 49 41.023663 +23 19 27.78967
 2018-Dec-29 02:51     07 49 41.108755 +23 19 24.95867
 2018-Dec-29 02:52     07 49 41.193658 +23 19 22.12646
 2018-Dec-29 02:53     07 49 41.278372 +23 19 19.29301
 2018-Dec-29 02:54     07 49 41.362897 +23 19 16.45833
 2018-Dec-29 02:55     07 49 41.447236 +23 19 13.62242
 2018-Dec-29 02:56     07 49 41.531387 +23 19 10.78526
 2018-Dec-29 02:57     07 49 41.615353 +23 19 07.94685
 2018-Dec-29 02:58     07 49 41.699134 +23 19 05.10719
 2018-Dec-29 02:59     07 49 41.782731 +23 19 02.26627
 2018-Dec-29 03:00     07 49 41.866143 +23 18 59.42410
 2018-Dec-29 03:01     07 49 41.949373 +23 18 56.58066
 2018-Dec-29 03:02     07 49 42.032421 +23 18 53.73594
 2018-Dec-29 03:03     07 49 42.115288 +23 18 50.88996
 2018-Dec-29 03:04     07 49 42.197974 +23 18 48.04269
 2018-Dec-29 03:05     07 49 42.280481 +23 18 45.19414
 2018-Dec-29 03:06     07 49 42.362809 +23 18 42.34430
 2018-Dec-29 03:07     07 49 42.444958 +23 18 39.49317
 2018-Dec-29 03:08     07 49 42.526930 +23 18 36.64075
 2018-Dec-29 03:09     07 49 42.608726 +23 18 33.78702
 2018-Dec-29 03:10     07 49 42.690346 +23 18 30.93198
 2018-Dec-29 03:11     07 49 42.771791 +23 18 28.07564
 2018-Dec-29 03:12     07 49 42.853061 +23 18 25.21798
 2018-Dec-29 03:13     07 49 42.934159 +23 18 22.35901
 2018-Dec-29 03:14     07 49 43.015084 +23 18 19.49871
 2018-Dec-29 03:15     07 49 43.095837 +23 18 16.63708
 2018-Dec-29 03:16     07 49 43.176420 +23 18 13.77413
 2018-Dec-29 03:17     07 49 43.256832 +23 18 10.90984
 2018-Dec-29 03:18     07 49 43.337075 +23 18 08.04420
 2018-Dec-29 03:19     07 49 43.417150 +23 18 05.17723
 2018-Dec-29 03:20     07 49 43.497057 +23 18 02.30891
 2018-Dec-29 03:21     07 49 43.576798 +23 17 59.43923
 2018-Dec-29 03:22     07 49 43.656373 +23 17 56.56820
 2018-Dec-29 03:23     07 49 43.735783 +23 17 53.69581
 2018-Dec-29 03:24     07 49 43.815028 +23 17 50.82205
 2018-Dec-29 03:25     07 49 43.894111 +23 17 47.94693
 2018-Dec-29 03:26     07 49 43.973030 +23 17 45.07043
 2018-Dec-29 03:27     07 49 44.051789 +23 17 42.19256
 2018-Dec-29 03:28     07 49 44.130386 +23 17 39.31330
 2018-Dec-29 03:29     07 49 44.208824 +23 17 36.43267
 2018-Dec-29 03:30     07 49 44.287103 +23 17 33.55064
 2018-Dec-29 03:31     07 49 44.365223 +23 17 30.66722
 2018-Dec-29 03:32     07 49 44.443187 +23 17 27.78241
 2018-Dec-29 03:33     07 49 44.520994 +23 17 24.89619
 2018-Dec-29 03:34     07 49 44.598645 +23 17 22.00857
 2018-Dec-29 03:35     07 49 44.676142 +23 17 19.11955
 2018-Dec-29 03:36     07 49 44.753485 +23 17 16.22911
 2018-Dec-29 03:37     07 49 44.830676 +23 17 13.33726
 2018-Dec-29 03:38     07 49 44.907714 +23 17 10.44398
 2018-Dec-29 03:39     07 49 44.984602 +23 17 07.54929
 2018-Dec-29 03:40     07 49 45.061339 +23 17 04.65317
 2018-Dec-29 03:41     07 49 45.137927 +23 17 01.75561
 2018-Dec-29 03:42     07 49 45.214367 +23 16 58.85663
 2018-Dec-29 03:43     07 49 45.290660 +23 16 55.95620
 2018-Dec-29 03:44     07 49 45.366806 +23 16 53.05434
 2018-Dec-29 03:45     07 49 45.442806 +23 16 50.15103
 2018-Dec-29 03:46     07 49 45.518662 +23 16 47.24627
 2018-Dec-29 03:47     07 49 45.594374 +23 16 44.34006
 2018-Dec-29 03:48     07 49 45.669943 +23 16 41.43239
 2018-Dec-29 03:49     07 49 45.745371 +23 16 38.52327
 2018-Dec-29 03:50     07 49 45.820657 +23 16 35.61268
 2018-Dec-29 03:51     07 49 45.895804 +23 16 32.70062
 2018-Dec-29 03:52     07 49 45.970811 +23 16 29.78710
 2018-Dec-29 03:53     07 49 46.045681 +23 16 26.87210
 2018-Dec-29 03:54     07 49 46.120413 +23 16 23.95562
 2018-Dec-29 03:55     07 49 46.195009 +23 16 21.03767
 2018-Dec-29 03:56     07 49 46.269469 +23 16 18.11823
 2018-Dec-29 03:57     07 49 46.343796 +23 16 15.19731
 2018-Dec-29 03:58     07 49 46.417989 +23 16 12.27489
 2018-Dec-29 03:59     07 49 46.492049 +23 16 09.35098
 2018-Dec-29 04:00     07 49 46.565978 +23 16 06.42558
 2018-Dec-29 04:01     07 49 46.639777 +23 16 03.49867
